[{"OBJECT_NAME":"STARLINK-5728","OBJECT_ID":"2023-020V","EPOCH":"2026-03-09T22:00:01.999584","MEAN_MOTION":15.12999401,"ECCENTRICITY":0.00012068,"INCLINATION":43.0006,"RA_OF_ASC_NODE":2.7584,"ARG_OF_PERICENTER":279.492,"MEAN_ANOMALY":348.9005,"EPHEMERIS_TYPE":0,"CLASSIFICATION_TYPE":"U","NORAD_CAT_ID":55588,"ELEMENT_SET_NO":999,"REV_AT_EPOCH":573,"BSTAR":0.026730069,"MEAN_MOTION_DOT":0.00510293,"MEAN_MOTION_DDOT":0},{"OBJECT_NAME":"ICEYE-X60","OBJECT_ID":"2025-276CR","EPOCH":"2026-03-09T18:23:10.076640","MEAN_MOTION":15.18150432,"ECCENTRICITY":0.00030743,"INCLINATION":97.4272,"RA_OF_ASC_NODE":143.9786,"ARG_OF_PERICENTER":37.9944,"MEAN_ANOMALY":322.1506,"EPHEMERIS_TYPE":0,"CLASSIFICATION_TYPE":"U","NORAD_CAT_ID":66753,"ELEMENT_SET_NO":999,"REV_AT_EPOCH":1532,"BSTAR":0.00022155306,"MEAN_MOTION_DOT":4.457e-5,"MEAN_MOTION_DDOT":0}]
